ORBCOMM-X               
1 21576U 91050C   25213.16261748  .00000300  00000+0  10171-3 0  9999
2 21576  98.3407 278.8410 0004615  61.9268 298.2389 14.43290464788609
ORBCOMM FM01            
1 23545U 95017A   25213.57359581  .00006600  00000+0  68291-3 0  9997
2 23545  69.9647 320.9250 0005691 257.6247 102.4270 14.90497821619273
ORBCOMM FM02            
1 23546U 95017B   25213.75725188  .00009517  00000+0  95739-3 0  9995
2 23546  69.9663 339.7058 0006952 254.3661 105.6727 14.91445357619259
ORBCOMM FM08            
1 25112U 97084A   25213.29993127  .00001662  00000+0  50321-3 0  9992
2 25112  45.0133 151.2858 0004686 103.8307 256.3066 14.45919649447909
ORBCOMM FM10            
1 25113U 97084B   25213.28771274  .00001537  00000+0  47036-3 0  9999
2 25113  45.0145 153.8041 0004233  56.5199 303.6057 14.45702107623042
ORBCOMM FM11            
1 25114U 97084C   25213.36919709  .00001470  00000+0  45407-3 0  9992
2 25114  45.0130 154.1280 0004907  62.6053 297.5297 14.45450420448018
ORBCOMM FM12            
1 25115U 97084D   25213.46924470  .00001481  00000+0  45706-3 0  9999
2 25115  45.0138 153.3933 0004113  54.9454 305.1783 14.45473805447827
ORBCOMM FM09            
1 25116U 97084E   25213.36724627  .00001474  00000+0  45607-3 0  9993
2 25116  45.0141 154.8607 0005661  50.1774 309.9574 14.45347142448014
